{"spkid": "50797719", "covariance": {"epoch": "2458148.5", "elements": [{"label": "e", "sigma": 5.85072312381897e-08, "name": "e", "value": ".737889829612657", "title": "eccentricity", "units": null}, {"label": "q", "units": "au", "title": "perihelion distance", "value": ".6235554812393462", "sigma": 1.35146027781173e-07, "name": "q"}, {"label": "tp", "sigma": 0.000155143855126662, "name": "tp", "value": "2458029.296853701574", "title": "time of perihelion passage", "units": "TDB"}, {"sigma": 8.20562003878184e-05, "name": "om", "units": "deg", "title": "longitude of the ascending node", "value": "96.40032267896079", "label": "node"}, {"units": "deg", "title": "argument of perihelion", "value": "286.1248161735986", "sigma": 9.84698079264285e-05, "name": "w", "label": "peri"}, {"label": "i", "units": "deg", "title": "inclination", "value": "11.51194267970343", "sigma": 1.93989741597412e-05, "name": "i"}], "data": [["3.423096107159003E-15", "-7.689523194211861E-15", "-9.718614662358557E-13", "-1.0969072449242E-13", "-4.712283456442801E-13", "4.45953545321278E-14"], ["-7.689523194211861E-15", "1.826444882502972E-14", "-1.122207522487449E-12", "1.194877856288385E-12", "-4.304237841390959E-13", "1.999141880155081E-13"], ["-9.718614662358557E-13", "-1.122207522487449E-12", "2.406961578356268E-8", "-6.651620293885448E-9", "1.099487110886275E-8", "-2.148757097818265E-9"], ["-1.0969072449242E-13", "1.194877856288385E-12", "-6.651620293885448E-9", "6.733220022085815E-9", "-7.781486440192832E-9", "1.413703778385306E-9"], ["-4.712283456442801E-13", "-4.304237841390959E-13", "1.099487110886275E-8", "-7.781486440192832E-9", "9.696303073067716E-9", "-1.777790052436836E-9"], ["4.45953545321278E-14", "1.999141880155081E-13", "-2.148757097818265E-9", "1.413703778385306E-9", "-1.777790052436836E-9", "3.76320198450308E-10"]], "labels": ["e", "q", "tp", "node", "peri", "i"]}, "elements": [{"label": "e", "units": null, "value": ".7376014184656622", "title": "eccentricity", "sigma": "5.8891E-8", "name": "e"}, {"label": "a", "title": "semi-major axis", "value": "2.378942651156997", "units": "au", "name": "a", "sigma": "1.224E-7"}, {"label": "q", "sigma": "1.3585E-7", "name": "q", "units": "au", "value": ".6242311772151331", "title": "perihelion distance"}, {"label": "i", "units": "deg", "value": "11.5145657547507", "title": "inclination; angle with respect to x-y ecliptic plane", "sigma": "1.9386E-5", "name": "i"}, {"value": "96.30575758210917", "title": "longitude of the ascending node", "units": "deg", "name": "om", "sigma": "8.1961E-5", "label": "node"}, {"label": "peri", "sigma": "9.8408E-5", "name": "w", "value": "286.1934184483824", "title": "argument of perihelion", "units": "deg"}, {"units": "deg", "title": "mean anomaly", "value": "131.5294425912821", "name": "ma", "sigma": "4.8588E-5", "label": "M"}, {"units": "TDB", "title": "time of perihelion passage", "value": "2460710.839733332912", "sigma": ".00015339", "name": "tp", "label": "tp"}, {"label": "period", "sigma": ".00010343", "name": "per", "units": "d", "title": "sidereal orbital period", "value": "1340.214727039644"}, {"label": "n", "units": "deg/d", "value": ".2686136726725814", "title": "mean motion", "sigma": "2.0731E-8", "name": "n"}, {"label": "Q", "value": "4.133654125098861", "title": "aphelion distance", "units": "au", "name": "ad", "sigma": "2.1268E-7"}], "epoch": "2461200.5"}